{
"type": "FeatureCollection",
"name": "TLR zones borders",
"crs": { "type": "name", "properties": { "name": "urn:ogc:def:crs:OGC:1.3:CRS84" } },
"features": [
{ "type": "Feature", "properties": { "id": 1 }, "geometry": { "type": "MultiPolygon", "coordinates": [ [ [ [ 12.70285083704872, 46.172687571963756 ], [ 12.708270429171334, 46.179606726571073 ], [ 12.708058726354045, 46.180881984196859 ], [ 12.708672664524183, 46.1813656948692 ], [ 12.71178469593834, 46.177759749294928 ], [ 12.712335123263289, 46.176587033109712 ], [ 12.71347831847665, 46.176997486619435 ], [ 12.716018752284123, 46.177671796448564 ], [ 12.716696201299452, 46.177583843461534 ], [ 12.71737365031478, 46.177026804610037 ], [ 12.71815695073875, 46.175868732095637 ], [ 12.718897910599262, 46.174739954402369 ], [ 12.718686207781973, 46.17369911288074 ], [ 12.718199291302206, 46.173068734493761 ], [ 12.717670034258983, 46.172614271174361 ], [ 12.71650566876389, 46.171837276800403 ], [ 12.715637687213, 46.171060271449299 ], [ 12.714663854253471, 46.17032723747046 ], [ 12.713838213266044, 46.169696820434908 ], [ 12.713097253405529, 46.169095718392612 ], [ 12.712335123263287, 46.168523932304893 ], [ 12.711700014811417, 46.167893494600662 ], [ 12.710916714387444, 46.167556280769553 ], [ 12.710345116780767, 46.167908156024701 ], [ 12.710091073400017, 46.168494609781199 ], [ 12.709096070158756, 46.168582577305393 ], [ 12.708058726354039, 46.168699867118804 ], [ 12.70719074480315, 46.168699867118804 ], [ 12.706428614660911, 46.168655883468077 ], [ 12.70601976359502, 46.168796539394201 ], [ 12.705669130803887, 46.168988050793487 ], [ 12.704689343702627, 46.169607480630567 ], [ 12.704756162404323, 46.169902073286281 ], [ 12.70543361141965, 46.170488505784022 ], [ 12.705137227475443, 46.170928326054103 ], [ 12.705391270856195, 46.171602710303944 ], [ 12.705560633110023, 46.171925238978631 ], [ 12.704756162404323, 46.172247765761931 ], [ 12.704417437896661, 46.172716892252154 ], [ 12.70285083704872, 46.172687571963756 ] ] ] ] } },
{ "type": "Feature", "properties": { "id": 2 }, "geometry": { "type": "MultiPolygon", "coordinates": [ [ [ [ 12.698743802393292, 46.162593133764744 ], [ 12.701982855497825, 46.163150318812953 ], [ 12.703337753528476, 46.163487559653362 ], [ 12.704523289305298, 46.163942098384787 ], [ 12.705793506209039, 46.164440620417139 ], [ 12.706724998605115, 46.164953800143444 ], [ 12.706301592970533, 46.160921544762083 ], [ 12.706195741561888, 46.159015284797221 ], [ 12.705539462828293, 46.158692680422988 ], [ 12.704163394515911, 46.158443393929247 ], [ 12.701982855497825, 46.157798176583341 ], [ 12.701940514934364, 46.158472721810654 ], [ 12.701114873946938, 46.158678016542858 ], [ 12.699654124507637, 46.15872200817153 ], [ 12.698786142956752, 46.158897974334536 ], [ 12.698680291548104, 46.15971914232118 ], [ 12.698701461829835, 46.160745585070593 ], [ 12.698807313238479, 46.161478746739313 ], [ 12.698743802393292, 46.162593133764744 ] ] ] ] } },
{ "type": "Feature", "properties": { "id": 3 }, "geometry": { "type": "MultiPolygon", "coordinates": [ [ [ [ 12.706767339168566, 46.164939137931967 ], [ 12.708101066917493, 46.165554947448634 ], [ 12.709688838047166, 46.16633203057205 ], [ 12.710302776217304, 46.166698575404979 ], [ 12.711721185093149, 46.167666242028595 ], [ 12.712673847770951, 46.168575246683758 ], [ 12.714663854253473, 46.170173299093683 ], [ 12.718516845528146, 46.171375473056536 ], [ 12.71883439975408, 46.170701086020394 ], [ 12.719173124261744, 46.170143977449257 ], [ 12.720612703419313, 46.168003455185598 ], [ 12.72137483356156, 46.167006471177153 ], [ 12.721671217505763, 46.165965483296688 ], [ 12.721586536378847, 46.164953800143437 ], [ 12.721544195815392, 46.164323321521827 ], [ 12.721184301025998, 46.163780810877697 ], [ 12.720845576518336, 46.163634185460921 ], [ 12.71883439975408, 46.163003691715787 ], [ 12.715277792423613, 46.161874649978152 ], [ 12.712758528897867, 46.161097503890836 ], [ 12.709625327201977, 46.160144385212035 ], [ 12.708842026778004, 46.160203039145955 ], [ 12.706386274097449, 46.160437654256377 ], [ 12.706470955224365, 46.162211898638269 ], [ 12.706767339168566, 46.164939137931967 ] ] ] ] } },
{ "type": "Feature", "properties": { "id": 4 }, "geometry": { "type": "MultiPolygon", "coordinates": [ [ [ [ 12.694059877560766, 46.166788378516564 ], [ 12.695076051083754, 46.167330859501355 ], [ 12.695266583619317, 46.167286874755952 ], [ 12.695838181225998, 46.167477475065397 ], [ 12.696134565170205, 46.167726720627378 ], [ 12.696282757142308, 46.168254531030556 ], [ 12.696663822213427, 46.168445127987056 ], [ 12.696854354748988, 46.16835716024304 ], [ 12.697341271228757, 46.168650385509302 ], [ 12.697976379680624, 46.169002253765463 ], [ 12.69884436123151, 46.169442085920281 ], [ 12.699183085739177, 46.170043184177331 ], [ 12.700135748416978, 46.17092282832246 ], [ 12.701046070531323, 46.171435947576995 ], [ 12.701554157292822, 46.171040113145544 ], [ 12.702464479407167, 46.170263096532508 ], [ 12.702972566168661, 46.170644275865286 ], [ 12.704285123635858, 46.17060029376939 ], [ 12.704602677861791, 46.169339458732082 ], [ 12.704703236700004, 46.169211174477539 ], [ 12.704840843531244, 46.16939810286307 ], [ 12.704877891524269, 46.169420094396074 ], [ 12.705115726408067, 46.169330753738528 ], [ 12.705174275468474, 46.169240496619231 ], [ 12.705486537123976, 46.169038906579352 ], [ 12.705772335927318, 46.168859307557859 ], [ 12.706174571280169, 46.168643054896684 ], [ 12.706418029520052, 46.168540426217632 ], [ 12.706740876316418, 46.168589907926076 ], [ 12.707016089978897, 46.168670544688922 ], [ 12.707598272726441, 46.168663214079011 ], [ 12.708064018924476, 46.168633891629568 ], [ 12.708984926179687, 46.168531262933399 ], [ 12.709090777588335, 46.16800345518562 ], [ 12.709111947870063, 46.167820187421967 ], [ 12.708148700051394, 46.167732218678516 ], [ 12.70834981772782, 46.167211734067841 ], [ 12.708370988009547, 46.166911170288977 ], [ 12.708466254277328, 46.166566619546508 ], [ 12.708794393644126, 46.166244059448722 ], [ 12.708953170757097, 46.166046123906838 ], [ 12.708413328573002, 46.165738222759394 ], [ 12.708021678361016, 46.165576940518193 ], [ 12.707492421317793, 46.165327685215331 ], [ 12.707270133359641, 46.1652177192815 ], [ 12.706820264872892, 46.165031693076322 ], [ 12.706396859238314, 46.164826422050915 ], [ 12.705857017054232, 46.164547838719876 ], [ 12.705423026278792, 46.164327903514646 ], [ 12.704967865221624, 46.164159285928505 ], [ 12.704555044727911, 46.163990667825558 ], [ 12.703771744303944, 46.163712080262279 ], [ 12.703126050711214, 46.163470147812795 ], [ 12.702162802892557, 46.163264870960738 ], [ 12.70113604422871, 46.1630669246994 ], [ 12.700193966691776, 46.162883640489071 ], [ 12.699516517676454, 46.162766338273997 ], [ 12.698489759012608, 46.162573888785644 ], [ 12.697970756324592, 46.162507447734541 ], [ 12.697356818154454, 46.162426801937116 ], [ 12.696901657097287, 46.162393810440449 ], [ 12.696647613716539, 46.162397476163285 ], [ 12.696595018797879, 46.162661865778148 ], [ 12.696576494801368, 46.162821323718461 ], [ 12.696544739378769, 46.163253873964891 ], [ 12.696396547406669, 46.163715745897278 ], [ 12.696322451420617, 46.163957677266708 ], [ 12.695560321278379, 46.164778769739051 ], [ 12.695348618461095, 46.164932723213276 ], [ 12.695094575080345, 46.165203973524335 ], [ 12.69490404254479, 46.165350594757221 ], [ 12.69476643571355, 46.165497215599331 ], [ 12.694628828882312, 46.165790456111154 ], [ 12.694755850572685, 46.165900420900094 ], [ 12.694586488318857, 46.166032378356661 ], [ 12.694491222051077, 46.166083695059847 ], [ 12.694533562614533, 46.166193659262596 ], [ 12.694059877560766, 46.166788378516564 ] ] ] ] } },
{ "type": "Feature", "properties": { "id": 5 }, "geometry": { "type": "MultiPolygon", "coordinates": [ [ [ [ 12.698701131044231, 46.162584427703635 ], [ 12.69873817903726, 46.162085888850974 ], [ 12.69876464188942, 46.161840283490534 ], [ 12.698669375621639, 46.161777965538107 ], [ 12.698357113966143, 46.161678989821546 ], [ 12.697981341465454, 46.161554353480746 ], [ 12.697568520971744, 46.161415053706889 ], [ 12.697192748471057, 46.161283085174766 ], [ 12.696875194245123, 46.161198771780171 ], [ 12.696520592026168, 46.161063136917782 ], [ 12.696282426356719, 46.160989820636736 ], [ 12.69610247896202, 46.160909172614723 ], [ 12.695086305439037, 46.160571915969179 ], [ 12.694154813042971, 46.160241988989462 ], [ 12.693577922865858, 46.160036700092512 ], [ 12.69264113789936, 46.15972876531093 ], [ 12.691587916383353, 46.159380503659833 ], [ 12.690878711945441, 46.159156881858571 ], [ 12.688740513490833, 46.158453017142122 ], [ 12.687724339967851, 46.158306377526223 ], [ 12.687110401797717, 46.158438353198122 ], [ 12.686623485317952, 46.159039571697768 ], [ 12.685289757569036, 46.15928885549053 ], [ 12.683934859538393, 46.159626120000752 ], [ 12.683215069959617, 46.159875401136127 ], [ 12.683426772776905, 46.160535257513573 ], [ 12.681669639393412, 46.160711217877704 ], [ 12.680886338969447, 46.160989820636722 ], [ 12.680484103616598, 46.161180442764248 ], [ 12.679827824883001, 46.162507447734541 ], [ 12.678599948542731, 46.162184863835535 ], [ 12.677308561357272, 46.162786041397915 ], [ 12.676842815159238, 46.163108621771997 ], [ 12.676948666567883, 46.163445862868024 ], [ 12.677350901920732, 46.163739114314602 ], [ 12.67790132924568, 46.163988376815169 ], [ 12.679256227276325, 46.164208313377763 ], [ 12.679658462629169, 46.164479567260685 ], [ 12.679459991237961, 46.164648183865147 ], [ 12.679624060921361, 46.164879114463098 ], [ 12.680079221978529, 46.165150365038485 ], [ 12.680301509936681, 46.165203515332358 ], [ 12.682619655785983, 46.164866285010874 ], [ 12.683709925295018, 46.164800304923553 ], [ 12.684376789169475, 46.164844291657232 ], [ 12.685033067903069, 46.164968920544943 ], [ 12.686059826566915, 46.165262163872896 ], [ 12.686896052695205, 46.165577398707036 ], [ 12.68780637480954, 46.165958610511957 ], [ 12.688632015796966, 46.166163877312712 ], [ 12.688899290603791, 46.166279339551522 ], [ 12.689068652857625, 46.166413128826754 ], [ 12.689497351062631, 46.166392968819807 ], [ 12.689865184707667, 46.166391136091541 ], [ 12.690209201785759, 46.166482772430292 ], [ 12.691225375308743, 46.166504765128863 ], [ 12.69230505967691, 46.166534088713298 ], [ 12.693173041227793, 46.166592735835273 ], [ 12.693945756510894, 46.16675768053063 ], [ 12.694183922180342, 46.166413128826754 ], [ 12.694390332427201, 46.166339819675152 ], [ 12.694469720983683, 46.166196866548525 ], [ 12.694459135842818, 46.166061244008077 ], [ 12.694665546089675, 46.165885300754638 ], [ 12.694575572392326, 46.165786332427281 ], [ 12.694665546089675, 46.165581064217733 ], [ 12.694750227216588, 46.165423447036972 ], [ 12.695046611160793, 46.165166859962767 ], [ 12.695113429862497, 46.165158841597425 ], [ 12.69520472670245, 46.16505529003129 ], [ 12.695295361971105, 46.164920351967865 ], [ 12.695496479647531, 46.164744405065441 ], [ 12.695744568886539, 46.164537529276771 ], [ 12.695941717135138, 46.16431392843544 ], [ 12.696158050951556, 46.164036946215049 ], [ 12.696290365212361, 46.163897652726931 ], [ 12.69638563148014, 46.163718036919008 ], [ 12.696427972043599, 46.163505429694609 ], [ 12.696517945740945, 46.163208511333849 ], [ 12.696621150864372, 46.16229575226415 ], [ 12.696928119949442, 46.162347072452974 ], [ 12.697753760936862, 46.162435049808174 ], [ 12.698701131044231, 46.162584427703635 ] ] ] ] } }
]
}
